{"generatedAt":"2026-04-14T07:56:45.725768Z","satellites":[{"name":"ONEWEB-0313","tle1":"1 49099U 21075AA  26103.72201093  .00000015  00000+0  51298-5 0  9997","tle2":"2 49099  87.9188  18.6860 0001702  79.9654 280.1670 13.17651252225100"},{"name":"ONEWEB-0314","tle1":"1 49100U 21075AB  26103.23278274  .00000039  00000+0  67135-4 0  9993","tle2":"2 49100  87.9199  18.7486 0001478  73.1489 286.9804 13.17647629225018"},{"name":"ONEWEB-0315","tle1":"1 49101U 21075AC  26103.71186582  .00000411  00000+0  11069-2 0  9994","tle2":"2 49101  87.9012   3.4506 0001558  89.9069 270.2238 13.12441104226715"},{"name":"ONEWEB-0316","tle1":"1 49102U 21075AD  26103.96734865  .00000021  00000+0  19319-4 0  9990","tle2":"2 49102  87.9219 348.2299 0001714  82.6015 277.5312 13.18683600228742"},{"name":"ONEWEB-0317","tle1":"1 49103U 21075AE  26103.94396354  .00000320  00000+0  85432-3 0  9996","tle2":"2 49103  87.9014   3.4274 0002285  64.3589 295.7775 13.12441100226762"},{"name":"ONEWEB-0318","tle1":"1 49104U 21075AF  26103.96404017  .00000597  00000+0  14824-2 0  9997","tle2":"2 49104  87.9314 348.2245 0002073  93.7504 266.3865 13.18695304228705"},{"name":"ONEWEB-0319","tle1":"1 49105U 21075AG  26103.70358649  .00000013  00000+0 -19791-7 0  9996","tle2":"2 49105  87.9185  18.6771 0001572  95.5369 264.5942 13.17647329225117"},{"name":"ONEWEB-0323","tle1":"1 49106U 21075AH  26103.46791119  .00000301  00000+0  80133-3 0  9996","tle2":"2 49106  87.9014   3.5033 0001329  93.2760 266.8521 13.12442600226066"},{"name":"ONEWEB-0329","tle1":"1 49107U 21075AJ  26103.48422004  .00000020  00000+0  17167-4 0  9999","tle2":"2 49107  87.9182  18.7210 0001696  77.5266 282.6055 13.17651009225068"},{"name":"ONEWEB-0330","tle1":"1 49108U 21075AK  26103.73580454 -.00000021  00000+0 -88178-4 0  9995","tle2":"2 49108  87.9187  18.6901 0001674  72.0951 288.0363 13.17648598225136"},{"name":"ONEWEB-0292","tle1":"1 49186U 21083A   26103.87166994  .00000051  00000+0  10484-3 0  9999","tle2":"2 49186  87.8977 333.0544 0001642  88.2030 271.9287 13.13468486222480"},{"name":"ONEWEB-0303","tle1":"1 49187U 21083B   26103.96074059  .00001516  00000+0  38118-2 0  9990","tle2":"2 49187  87.9226 348.2261 0002581  91.8235 268.3193 13.18694878221513"},{"name":"ONEWEB-0306","tle1":"1 49188U 21083C   26103.95086757 -.00000052  00000+0 -16379-3 0  9990","tle2":"2 49188  87.9227 348.2153 0001846  75.2391 284.8946 13.18685247221550"},{"name":"ONEWEB-0307","tle1":"1 49189U 21083D   26103.86573221  .00000259  00000+0  67522-3 0  9991","tle2":"2 49189  87.8988 333.0459 0001591  84.1793 275.9518 13.13468814222480"},{"name":"ONEWEB-0320","tle1":"1 49190U 21083E   26103.97077196 -.00006056  00000+0 -15395-1 0  9997","tle2":"2 49190  87.9216 348.2359 0001614  74.7026 285.4284 13.18723592221515"},{"name":"ONEWEB-0321","tle1":"1 49191U 21083F   26103.50461957  .00000065  00000+0  12757-3 0  9992","tle2":"2 49191  87.9138 287.3476 0001927  84.2015 275.9338 13.20773117228290"}]}