[{"OBJECT_NAME":"ONEWEB-0313","OBJECT_ID":"2021-075AA","EPOCH":"2026-04-13T17:19:41.744352","MEAN_MOTION":13.17651252,"ECCENTRICITY":0.0001702,"INCLINATION":87.9188,"RA_OF_ASC_NODE":18.686,"ARG_OF_PERICENTER":79.9654,"MEAN_ANOMALY":280.167,"EPHEMERIS_TYPE":0,"CLASSIFICATION_TYPE":"U","NORAD_CAT_ID":49099,"ELEMENT_SET_NO":999,"REV_AT_EPOCH":22510,"BSTAR":5.1298e-06,"MEAN_MOTION_DOT":1.5e-07,"MEAN_MOTION_DDOT":0.0},{"OBJECT_NAME":"ONEWEB-0314","OBJECT_ID":"2021-075AB","EPOCH":"2026-04-13T05:35:12.428736","MEAN_MOTION":13.17647629,"ECCENTRICITY":0.0001478,"INCLINATION":87.9199,"RA_OF_ASC_NODE":18.7486,"ARG_OF_PERICENTER":73.1489,"MEAN_ANOMALY":286.9804,"EPHEMERIS_TYPE":0,"CLASSIFICATION_TYPE":"U","NORAD_CAT_ID":49100,"ELEMENT_SET_NO":999,"REV_AT_EPOCH":22501,"BSTAR":6.7135e-05,"MEAN_MOTION_DOT":3.9e-07,"MEAN_MOTION_DDOT":0.0},{"OBJECT_NAME":"ONEWEB-0315","OBJECT_ID":"2021-075AC","EPOCH":"2026-04-13T17:05:05.206848","MEAN_MOTION":13.12441104,"ECCENTRICITY":0.0001558,"INCLINATION":87.9012,"RA_OF_ASC_NODE":3.4506,"ARG_OF_PERICENTER":89.9069,"MEAN_ANOMALY":270.2238,"EPHEMERIS_TYPE":0,"CLASSIFICATION_TYPE":"U","NORAD_CAT_ID":49101,"ELEMENT_SET_NO":999,"REV_AT_EPOCH":22671,"BSTAR":0.0011069,"MEAN_MOTION_DOT":4.11e-06,"MEAN_MOTION_DDOT":0.0},{"OBJECT_NAME":"ONEWEB-0316","OBJECT_ID":"2021-075AD","EPOCH":"2026-04-13T23:12:58.923360","MEAN_MOTION":13.186836,"ECCENTRICITY":0.0001714,"INCLINATION":87.9219,"RA_OF_ASC_NODE":348.2299,"ARG_OF_PERICENTER":82.6015,"MEAN_ANOMALY":277.5312,"EPHEMERIS_TYPE":0,"CLASSIFICATION_TYPE":"U","NORAD_CAT_ID":49102,"ELEMENT_SET_NO":999,"REV_AT_EPOCH":22874,"BSTAR":1.9319000000000003e-05,"MEAN_MOTION_DOT":2.1e-07,"MEAN_MOTION_DDOT":0.0},{"OBJECT_NAME":"ONEWEB-0317","OBJECT_ID":"2021-075AE","EPOCH":"2026-04-13T22:39:18.449856","MEAN_MOTION":13.124411,"ECCENTRICITY":0.0002285,"INCLINATION":87.9014,"RA_OF_ASC_NODE":3.4274,"ARG_OF_PERICENTER":64.3589,"MEAN_ANOMALY":295.7775,"EPHEMERIS_TYPE":0,"CLASSIFICATION_TYPE":"U","NORAD_CAT_ID":49103,"ELEMENT_SET_NO":999,"REV_AT_EPOCH":22676,"BSTAR":0.00085432,"MEAN_MOTION_DOT":3.2e-06,"MEAN_MOTION_DDOT":0.0},{"OBJECT_NAME":"ONEWEB-0318","OBJECT_ID":"2021-075AF","EPOCH":"2026-04-13T23:08:13.070688","MEAN_MOTION":13.18695304,"ECCENTRICITY":0.0002073,"INCLINATION":87.9314,"RA_OF_ASC_NODE":348.2245,"ARG_OF_PERICENTER":93.7504,"MEAN_ANOMALY":266.3865,"EPHEMERIS_TYPE":0,"CLASSIFICATION_TYPE":"U","NORAD_CAT_ID":49104,"ELEMENT_SET_NO":999,"REV_AT_EPOCH":22870,"BSTAR":0.0014824,"MEAN_MOTION_DOT":5.97e-06,"MEAN_MOTION_DDOT":0.0},{"OBJECT_NAME":"ONEWEB-0319","OBJECT_ID":"2021-075AG","EPOCH":"2026-04-13T16:53:09.872736","MEAN_MOTION":13.17647329,"ECCENTRICITY":0.0001572,"INCLINATION":87.9185,"RA_OF_ASC_NODE":18.6771,"ARG_OF_PERICENTER":95.5369,"MEAN_ANOMALY":264.5942,"EPHEMERIS_TYPE":0,"CLASSIFICATION_TYPE":"U","NORAD_CAT_ID":49105,"ELEMENT_SET_NO":999,"REV_AT_EPOCH":22511,"BSTAR":-1.9791e-08,"MEAN_MOTION_DOT":1.3e-07,"MEAN_MOTION_DDOT":0.0},{"OBJECT_NAME":"ONEWEB-0323","OBJECT_ID":"2021-075AH","EPOCH":"2026-04-13T11:13:47.526816","MEAN_MOTION":13.124426,"ECCENTRICITY":0.0001329,"INCLINATION":87.9014,"RA_OF_ASC_NODE":3.5033,"ARG_OF_PERICENTER":93.276,"MEAN_ANOMALY":266.8521,"EPHEMERIS_TYPE":0,"CLASSIFICATION_TYPE":"U","NORAD_CAT_ID":49106,"ELEMENT_SET_NO":999,"REV_AT_EPOCH":22606,"BSTAR":0.0008013300000000001,"MEAN_MOTION_DOT":3.01e-06,"MEAN_MOTION_DDOT":0.0},{"OBJECT_NAME":"ONEWEB-0329","OBJECT_ID":"2021-075AJ","EPOCH":"2026-04-13T11:37:16.611456","MEAN_MOTION":13.17651009,"ECCENTRICITY":0.0001696,"INCLINATION":87.9182,"RA_OF_ASC_NODE":18.721,"ARG_OF_PERICENTER":77.5266,"MEAN_ANOMALY":282.6055,"EPHEMERIS_TYPE":0,"CLASSIFICATION_TYPE":"U","NORAD_CAT_ID":49107,"ELEMENT_SET_NO":999,"REV_AT_EPOCH":22506,"BSTAR":1.7167e-05,"MEAN_MOTION_DOT":2e-07,"MEAN_MOTION_DDOT":0.0},{"OBJECT_NAME":"ONEWEB-0330","OBJECT_ID":"2021-075AK","EPOCH":"2026-04-13T17:39:33.512256","MEAN_MOTION":13.17648598,"ECCENTRICITY":0.0001674,"INCLINATION":87.9187,"RA_OF_ASC_NODE":18.6901,"ARG_OF_PERICENTER":72.0951,"MEAN_ANOMALY":288.0363,"EPHEMERIS_TYPE":0,"CLASSIFICATION_TYPE":"U","NORAD_CAT_ID":49108,"ELEMENT_SET_NO":999,"REV_AT_EPOCH":22513,"BSTAR":-8.817800000000001e-05,"MEAN_MOTION_DOT":-2.1e-07,"MEAN_MOTION_DDOT":0.0},{"OBJECT_NAME":"ONEWEB-0292","OBJECT_ID":"2021-083A","EPOCH":"2026-04-13T20:55:12.282816","MEAN_MOTION":13.13468486,"ECCENTRICITY":0.0001642,"INCLINATION":87.8977,"RA_OF_ASC_NODE":333.0544,"ARG_OF_PERICENTER":88.203,"MEAN_ANOMALY":271.9287,"EPHEMERIS_TYPE":0,"CLASSIFICATION_TYPE":"U","NORAD_CAT_ID":49186,"ELEMENT_SET_NO":999,"REV_AT_EPOCH":22248,"BSTAR":0.00010484,"MEAN_MOTION_DOT":5.1e-07,"MEAN_MOTION_DDOT":0.0},{"OBJECT_NAME":"ONEWEB-0303","OBJECT_ID":"2021-083B","EPOCH":"2026-04-13T23:03:27.986976","MEAN_MOTION":13.18694878,"ECCENTRICITY":0.0002581,"INCLINATION":87.9226,"RA_OF_ASC_NODE":348.2261,"ARG_OF_PERICENTER":91.8235,"MEAN_ANOMALY":268.3193,"EPHEMERIS_TYPE":0,"CLASSIFICATION_TYPE":"U","NORAD_CAT_ID":49187,"ELEMENT_SET_NO":999,"REV_AT_EPOCH":22151,"BSTAR":0.0038118,"MEAN_MOTION_DOT":1.516e-05,"MEAN_MOTION_DDOT":0.0},{"OBJECT_NAME":"ONEWEB-0306","OBJECT_ID":"2021-083C","EPOCH":"2026-04-13T22:49:14.958048","MEAN_MOTION":13.18685247,"ECCENTRICITY":0.0001846,"INCLINATION":87.9227,"RA_OF_ASC_NODE":348.2153,"ARG_OF_PERICENTER":75.2391,"MEAN_ANOMALY":284.8946,"EPHEMERIS_TYPE":0,"CLASSIFICATION_TYPE":"U","NORAD_CAT_ID":49188,"ELEMENT_SET_NO":999,"REV_AT_EPOCH":22155,"BSTAR":-0.00016379,"MEAN_MOTION_DOT":-5.2e-07,"MEAN_MOTION_DDOT":0.0},{"OBJECT_NAME":"ONEWEB-0307","OBJECT_ID":"2021-083D","EPOCH":"2026-04-13T20:46:39.262944","MEAN_MOTION":13.13468814,"ECCENTRICITY":0.0001591,"INCLINATION":87.8988,"RA_OF_ASC_NODE":333.0459,"ARG_OF_PERICENTER":84.1793,"MEAN_ANOMALY":275.9518,"EPHEMERIS_TYPE":0,"CLASSIFICATION_TYPE":"U","NORAD_CAT_ID":49189,"ELEMENT_SET_NO":999,"REV_AT_EPOCH":22248,"BSTAR":0.00067522,"MEAN_MOTION_DOT":2.59e-06,"MEAN_MOTION_DDOT":0.0},{"OBJECT_NAME":"ONEWEB-0320","OBJECT_ID":"2021-083E","EPOCH":"2026-04-13T23:17:54.697344","MEAN_MOTION":13.18723592,"ECCENTRICITY":0.0001614,"INCLINATION":87.9216,"RA_OF_ASC_NODE":348.2359,"ARG_OF_PERICENTER":74.7026,"MEAN_ANOMALY":285.4284,"EPHEMERIS_TYPE":0,"CLASSIFICATION_TYPE":"U","NORAD_CAT_ID":49190,"ELEMENT_SET_NO":999,"REV_AT_EPOCH":22151,"BSTAR":-0.015395,"MEAN_MOTION_DOT":-6.056e-05,"MEAN_MOTION_DDOT":0.0},{"OBJECT_NAME":"ONEWEB-0321","OBJECT_ID":"2021-083F","EPOCH":"2026-04-13T12:06:39.130848","MEAN_MOTION":13.20773117,"ECCENTRICITY":0.0001927,"INCLINATION":87.9138,"RA_OF_ASC_NODE":287.3476,"ARG_OF_PERICENTER":84.2015,"MEAN_ANOMALY":275.9338,"EPHEMERIS_TYPE":0,"CLASSIFICATION_TYPE":"U","NORAD_CAT_ID":49191,"ELEMENT_SET_NO":999,"REV_AT_EPOCH":22829,"BSTAR":0.00012757,"MEAN_MOTION_DOT":6.5e-07,"MEAN_MOTION_DDOT":0.0}]